{"type": "FeatureCollection", "features": [ {"type": "Feature", "properties": {"norad_id": 66323, "name": "STARLINK-35309", "group": "last-30-days", "lat": 39.056090479363036, "lon": 102.79675979120127, "alt_km": 409.3719474222444, "timestamp": "2025-12-02T21:34:00.040539+00:00", "meta": {"OBJECT_NAME": "STARLINK-35309", "OBJECT_ID": "2025-253E", "EPOCH": "2025-12-02T07:21:49.754304", "MEAN_MOTION": 15.50620272, "ECCENTRICITY": 0.0001279, "INCLINATION": 43.0004, "RA_OF_ASC_NODE": 45.715, "ARG_OF_PERICENTER": 253.4797, "MEAN_ANOMALY": 106.5923, "EPHEMERIS_TYPE": 0, "CLASSIFICATION_TYPE": "U", "NORAD_CAT_ID": 66323, "ELEMENT_SET_NO": 999, "REV_AT_EPOCH": 531, "BSTAR": 0.00083711, "MEAN_MOTION_DOT": 0.00049149, "MEAN_MOTION_DDOT": 0}, "tle": {"line1": "1 66323U 25253E   25336.30682586  .00049149  00000+0  83711-3 0  9993", "line2": "2 66323  43.0004  45.7150 0001279 253.4797 106.5923 15.50620272  5316"}}, "geometry": {"type": "Point", "coordinates": [102.79675979120127, 39.056090479363036]}}, {"type": "Feature", "properties": {"norad_id": 66324, "name": "STARLINK-35506", "group": "last-30-days", "lat": 36.74402014308745, "lon": 95.50983057183582, "alt_km": 408.28971970071234, "timestamp": "2025-12-02T21:34:00.040553+00:00", "meta": {"OBJECT_NAME": "STARLINK-35506", "OBJECT_ID": "2025-253F", "EPOCH": "2025-12-02T05:50:53.634048", "MEAN_MOTION": 15.50908788, "ECCENTRICITY": 0.0001609, "INCLINATION": 43.0002, "RA_OF_ASC_NODE": 46.1022, "ARG_OF_PERICENTER": 289.6052, "MEAN_ANOMALY": 70.4635, "EPHEMERIS_TYPE": 0, "CLASSIFICATION_TYPE": "U", "NORAD_CAT_ID": 66324, "ELEMENT_SET_NO": 999, "REV_AT_EPOCH": 530, "BSTAR": 0.0025528, "MEAN_MOTION_DOT": 0.00154211, "MEAN_MOTION_DDOT": 0}, "tle": {"line1": "1 66324U 25253F   25336.24367632  .00154211  00000+0  25528-2 0  9997", "line2": "2 66324  43.0002  46.1022 0001609 289.6052  70.4635 15.50908788  5309"}}, "geometry": {"type": "Point", "coordinates": [95.50983057183582, 36.74402014308745]}}, {"type": "Feature", "properties": {"norad_id": 66325, "name": "STARLINK-35504", "group": "last-30-days", "lat": 35.40591519326289, "lon": 91.98826266078866, "alt_km": 411.5393457044702, "timestamp": "2025-12-02T21:34:00.040577+00:00", "meta": {"OBJECT_NAME": "STARLINK-35504", "OBJECT_ID": "2025-253G", "EPOCH": "2025-12-02T05:50:57.629184", "MEAN_MOTION": 15.49695225, "ECCENTRICITY": 3.34e-05, "INCLINATION": 42.9999, "RA_OF_ASC_NODE": 46.1029, "ARG_OF_PERICENTER": 172.3889, "MEAN_ANOMALY": 187.6976, "EPHEMERIS_TYPE": 0, "CLASSIFICATION_TYPE": "U", "NORAD_CAT_ID": 66325, "ELEMENT_SET_NO": 999, "REV_AT_EPOCH": 530, "BSTAR": 0.002443, "MEAN_MOTION_DOT": 0.00141092, "MEAN_MOTION_DDOT": 0}, "tle": {"line1": "1 66325U 25253G   25336.24372256  .00141092  00000+0  24430-2 0  9990", "line2": "2 66325  42.9999  46.1029 0000334 172.3889 187.6976 15.49695225  5306"}}, "geometry": {"type": "Point", "coordinates": [91.98826266078866, 35.40591519326289]}}, {"type": "Feature", "properties": {"norad_id": 66326, "name": "STARLINK-35479", "group": "last-30-days", "lat": 39.65666864660951, "lon": 105.06329590550831, "alt_km": 408.96277212548557, "timestamp": "2025-12-02T21:34:00.040591+00:00", "meta": {"OBJECT_NAME": "STARLINK-35479", "OBJECT_ID": "2025-253H", "EPOCH": "2025-12-02T11:59:36.576096", "MEAN_MOTION": 15.50605738, "ECCENTRICITY": 8.22e-05, "INCLINATION": 43.0003, "RA_OF_ASC_NODE": 44.5798, "ARG_OF_PERICENTER": 239.7912, "MEAN_ANOMALY": 120.2866, "EPHEMERIS_TYPE": 0, "CLASSIFICATION_TYPE": "U", "NORAD_CAT_ID": 66326, "ELEMENT_SET_NO": 999, "REV_AT_EPOCH": 534, "BSTAR": 0.0016599, "MEAN_MOTION_DOT": 0.00098363, "MEAN_MOTION_DDOT": 0}, "tle": {"line1": "1 66326U 25253H   25336.49972889  .00098363  00000+0  16599-2 0  9995", "line2": "2 66326  43.0003  44.5798 0000822 239.7912 120.2866 15.50605738  5344"}}, "geometry": {"type": "Point", "coordinates": [105.06329590550831, 39.65666864660951]}}, {"type": "Feature", "properties": {"norad_id": 66327, "name": "STARLINK-35507", "group": "last-30-days", "lat": 35.528324295409554, "lon": 92.29479194378439, "alt_km": 409.9434676664878, "timestamp": "2025-12-02T21:34:00.040602+00:00", "meta": {"OBJECT_NAME": "STARLINK-35507", "OBJECT_ID": "2025-253J", "EPOCH": "2025-12-02T05:51:32.368032", "MEAN_MOTION": 15.50777938, "ECCENTRICITY": 0.0002596, "INCLINATION": 42.9999, "RA_OF_ASC_NODE": 46.106, "ARG_OF_PERICENTER": 253.7936, "MEAN_ANOMALY": 106.2639, "EPHEMERIS_TYPE": 0, "CLASSIFICATION_TYPE": "U", "NORAD_CAT_ID": 66327, "ELEMENT_SET_NO": 999, "REV_AT_EPOCH": 530, "BSTAR": 0.002155, "MEAN_MOTION_DOT": 0.00129109, "MEAN_MOTION_DDOT": 0}, "tle": {"line1": "1 66327U 25253J   25336.24412463  .00129109  00000+0  21550-2 0  9992", "line2": "2 66327  42.9999  46.1060 0002596 253.7936 106.2639 15.50777938  5309"}}, "geometry": {"type": "Point", "coordinates": [92.29479194378439, 35.528324295409554]}}, {"type": "Feature", "properties": {"norad_id": 66328, "name": "STARLINK-35460", "group": "last-30-days", "lat": 41.36992112952133, "lon": 113.15214642125305, "alt_km": 408.4916148837101, "timestamp": "2025-12-02T21:34:00.040613+00:00", "meta": {"OBJECT_NAME": "STARLINK-35460", "OBJECT_ID": "2025-253K", "EPOCH": "2025-12-01T14:19:31.564704", "MEAN_MOTION": 15.50606087, "ECCENTRICITY": 0.00018266, "INCLINATION": 43.0003, "RA_OF_ASC_NODE": 49.8457, "ARG_OF_PERICENTER": 291.64, "MEAN_ANOMALY": 68.4265, "EPHEMERIS_TYPE": 0, "CLASSIFICATION_TYPE": "U", "NORAD_CAT_ID": 66328, "ELEMENT_SET_NO": 999, "REV_AT_EPOCH": 520, "BSTAR": 0.0016742687, "MEAN_MOTION_DOT": 0.0009923, "MEAN_MOTION_DDOT": 0}, "tle": {"line1": "1 66328U 25253K   25335.59689311  .00099230  00000+0  16743-2 0  9997", "line2": "2 66328  43.0003  49.8457 0001826 291.6400  68.4265 15.50606087  5209"}}, "geometry": {"type": "Point", "coordinates": [113.15214642125305, 41.36992112952133]}}, {"type": "Feature", "properties": {"norad_id": 66329, "name": "STARLINK-35505", "group": "last-30-days", "lat": 34.023546006581064, "lon": 88.70996677497148, "alt_km": 410.0387804034963, "timestamp": "2025-12-02T21:34:00.040623+00:00", "meta": {"OBJECT_NAME": "STARLINK-35505", "OBJECT_ID": "2025-253L", "EPOCH": "2025-12-02T05:52:02.295264", "MEAN_MOTION": 15.50171072, "ECCENTRICITY": 0.000215, "INCLINATION": 43.0001, "RA_OF_ASC_NODE": 46.1098, "ARG_OF_PERICENTER": 329.5242, "MEAN_ANOMALY": 30.5492, "EPHEMERIS_TYPE": 0, "CLASSIFICATION_TYPE": "U", "NORAD_CAT_ID": 66329, "ELEMENT_SET_NO": 999, "REV_AT_EPOCH": 530, "BSTAR": 0.0025402, "MEAN_MOTION_DOT": 0.00149376, "MEAN_MOTION_DDOT": 0}, "tle": {"line1": "1 66329U 25253L   25336.24447101  .00149376  00000+0  25402-2 0  9999", "line2": "2 66329  43.0001  46.1098 0002150 329.5242  30.5492 15.50171072  5309"}}, "geometry": {"type": "Point", "coordinates": [88.70996677497148, 34.023546006581064]}}, {"type": "Feature", "properties": {"norad_id": 66330, "name": "STARLINK-35512", "group": "last-30-days", "lat": -4.268835852671263, "lon": 37.840620618244685, "alt_km": 443.52775318933254, "timestamp": "2025-12-02T21:34:00.040637+00:00", "meta": {"OBJECT_NAME": "STARLINK-35512", "OBJECT_ID": "2025-253M", "EPOCH": "2025-12-02T12:00:05.998752", "MEAN_MOTION": 15.40674706, "ECCENTRICITY": 0.0001962, "INCLINATION": 43.0002, "RA_OF_ASC_NODE": 44.7322, "ARG_OF_PERICENTER": 295.6394, "MEAN_ANOMALY": 5.0102, "EPHEMERIS_TYPE": 0, "CLASSIFICATION_TYPE": "U", "NORAD_CAT_ID": 66330, "ELEMENT_SET_NO": 999, "REV_AT_EPOCH": 528, "BSTAR": 0.0015433, "MEAN_MOTION_DOT": 0.00064658, "MEAN_MOTION_DDOT": 0}, "tle": {"line1": "1 66330U 25253M   25336.50006943  .00064658  00000+0  15433-2 0  9997", "line2": "2 66330  43.0002  44.7322 0001962 295.6394   5.0102 15.40674706  5280"}}, "geometry": {"type": "Point", "coordinates": [37.840620618244685, -4.268835852671263]}}, {"type": "Feature", "properties": {"norad_id": 66331, "name": "STARLINK-35257", "group": "last-30-days", "lat": 42.34031418526111, "lon": 120.14157042918194, "alt_km": 408.610272761367, "timestamp": "2025-12-02T21:34:00.040649+00:00", "meta": {"OBJECT_NAME": "STARLINK-35257", "OBJECT_ID": "2025-253N", "EPOCH": "2025-12-02T05:45:36.979776", "MEAN_MOTION": 15.5063759, "ECCENTRICITY": 0.0001229, "INCLINATION": 42.9998, "RA_OF_ASC_NODE": 46.0726, "ARG_OF_PERICENTER": 269.4284, "MEAN_ANOMALY": 90.6435, "EPHEMERIS_TYPE": 0, "CLASSIFICATION_TYPE": "U", "NORAD_CAT_ID": 66331, "ELEMENT_SET_NO": 999, "REV_AT_EPOCH": 530, "BSTAR": 0.0014445, "MEAN_MOTION_DOT": 0.00085511, "MEAN_MOTION_DDOT": 0}, "tle": {"line1": "1 66331U 25253N   25336.24001134  .00085511  00000+0  14445-2 0  9999", "line2": "2 66331  42.9998  46.0726 0001229 269.4284  90.6435 15.50637590  5302"}}, "geometry": {"type": "Point", "coordinates": [120.14157042918194, 42.34031418526111]}}, {"type": "Feature", "properties": {"norad_id": 66332, "name": "STARLINK-35322", "group": "last-30-days", "lat": 40.32353283349302, "lon": 107.86281568790666, "alt_km": 408.5344661876243, "timestamp": "2025-12-02T21:34:00.040659+00:00", "meta": {"OBJECT_NAME": "STARLINK-35322", "OBJECT_ID": "2025-253P", "EPOCH": "2025-12-02T05:48:04.239936", "MEAN_MOTION": 15.50671276, "ECCENTRICITY": 9.86e-05, "INCLINATION": 43.0002, "RA_OF_ASC_NODE": 46.0856, "ARG_OF_PERICENTER": 282.8379, "MEAN_ANOMALY": 77.2371, "EPHEMERIS_TYPE": 0, "CLASSIFICATION_TYPE": "U", "NORAD_CAT_ID": 66332, "ELEMENT_SET_NO": 999, "REV_AT_EPOCH": 530, "BSTAR": 0.001523, "MEAN_MOTION_DOT": 0.00090339, "MEAN_MOTION_DDOT": 0}, "tle": {"line1": "1 66332U 25253P   25336.24171574  .00090339  00000+0  15230-2 0  9993", "line2": "2 66332  43.0002  46.0856 0000986 282.8379  77.2371 15.50671276  5307"}}, "geometry": {"type": "Point", "coordinates": [107.86281568790666, 40.32353283349302]}}]}